{
"type": "FeatureCollection",
"name": "fiji-processed-tdata",
"crs": { "type": "name", "properties": { "name": "urn:ogc:def:crs:OGC:1.3:CRS84" } },
"features": [
{ "type": "Feature", "properties": { "fid": 1182, "ClassId": 6, "Class": "Water", "LULC_code": 6 }, "geometry": { "type": "Point", "coordinates": [ 178.0317633, -17.74231272 ] } },
{ "type": "Feature", "properties": { "fid": 1293, "ClassId": 4, "Class": "Mangroves", "LULC_code": 4 }, "geometry": { "type": "Point", "coordinates": [ 177.6164694, -17.47065983 ] } },
{ "type": "Feature", "properties": { "fid": 2019, "ClassId": 6, "Class": "Water", "LULC_code": 6 }, "geometry": { "type": "Point", "coordinates": [ 178.0250256, -17.73584257 ] } },
{ "type": "Feature", "properties": { "fid": 2074, "ClassId": 6, "Class": "Water", "LULC_code": 6 }, "geometry": { "type": "Point", "coordinates": [ 178.0395756, -17.74284781 ] } },
{ "type": "Feature", "properties": { "fid": 2924, "ClassId": 6, "Class": "Water", "LULC_code": 6 }, "geometry": { "type": "Point", "coordinates": [ 178.0390361, -17.74096161 ] } },
{ "type": "Feature", "properties": { "fid": 2957, "ClassId": 3, "Class": "Grassland", "LULC_code": 3 }, "geometry": { "type": "Point", "coordinates": [ 177.9943024, -17.52455698 ] } },
{ "type": "Feature", "properties": { "fid": 3006, "ClassId": 3, "Class": "Grassland", "LULC_code": 3 }, "geometry": { "type": "Point", "coordinates": [ 177.79137320000001, -17.6595741 ] } },
{ "type": "Feature", "properties": { "fid": 4008, "ClassId": 4, "Class": "Mangroves", "LULC_code": 4 }, "geometry": { "type": "Point", "coordinates": [ 177.8980928, -17.41999552 ] } },
{ "type": "Feature", "properties": { "fid": 4148, "ClassId": 6, "Class": "Water", "LULC_code": 6 }, "geometry": { "type": "Point", "coordinates": [ 177.662554199999988, -17.74231272 ] } },
{ "type": "Feature", "properties": { "fid": 4314, "ClassId": 6, "Class": "Water", "LULC_code": 6 }, "geometry": { "type": "Point", "coordinates": [ 178.547841799999986, -18.04414481 ] } },
{ "type": "Feature", "properties": { "fid": 4511, "ClassId": 4, "Class": "Mangroves", "LULC_code": 4 }, "geometry": { "type": "Point", "coordinates": [ 178.41417580000001, -17.55393354 ] } },
{ "type": "Feature", "properties": { "fid": 5438, "ClassId": 2, "Class": "Forest", "LULC_code": 2 }, "geometry": { "type": "Point", "coordinates": [ 178.0595212, -17.81696253 ] } },
{ "type": "Feature", "properties": { "fid": 5680, "ClassId": 2, "Class": "Forest", "LULC_code": 2 }, "geometry": { "type": "Point", "coordinates": [ 178.265411300000011, -18.08403147 ] } },
{ "type": "Feature", "properties": { "fid": 5862, "ClassId": 4, "Class": "Mangroves", "LULC_code": 4 }, "geometry": { "type": "Point", "coordinates": [ 178.6758537, -18.01665446 ] } },
{ "type": "Feature", "properties": { "fid": 6131, "ClassId": 1, "Class": "Cropland", "LULC_code": 1 }, "geometry": { "type": "Point", "coordinates": [ 178.239272, -18.02339216 ] } },
{ "type": "Feature", "properties": { "fid": 6145, "ClassId": 2, "Class": "Forest", "LULC_code": 2 }, "geometry": { "type": "Point", "coordinates": [ 177.8829988, -18.18374143 ] } },
{ "type": "Feature", "properties": { "fid": 6638, "ClassId": 4, "Class": "Mangroves", "LULC_code": 4 }, "geometry": { "type": "Point", "coordinates": [ 177.43106, -17.73476346 ] } },
{ "type": "Feature", "properties": { "fid": 7156, "ClassId": 6, "Class": "Water", "LULC_code": 6 }, "geometry": { "type": "Point", "coordinates": [ 178.564822099999986, -18.05708067 ] } },
{ "type": "Feature", "properties": { "fid": 7239, "ClassId": 6, "Class": "Water", "LULC_code": 6 }, "geometry": { "type": "Point", "coordinates": [ 178.0228674, -17.73449592 ] } },
{ "type": "Feature", "properties": { "fid": 7378, "ClassId": 2, "Class": "Forest", "LULC_code": 2 }, "geometry": { "type": "Point", "coordinates": [ 178.201271600000013, -18.06004597 ] } },
{ "type": "Feature", "properties": { "fid": 7803, "ClassId": 3, "Class": "Grassland", "LULC_code": 3 }, "geometry": { "type": "Point", "coordinates": [ 177.7404369, -17.64771735 ] } },
{ "type": "Feature", "properties": { "fid": 8263, "ClassId": 2, "Class": "Forest", "LULC_code": 2 }, "geometry": { "type": "Point", "coordinates": [ 177.9579206, -17.85415144 ] } },
{ "type": "Feature", "properties": { "fid": 9089, "ClassId": 4, "Class": "Mangroves", "LULC_code": 4 }, "geometry": { "type": "Point", "coordinates": [ 177.8355673, -17.42754032 ] } },
{ "type": "Feature", "properties": { "fid": 9101, "ClassId": 4, "Class": "Mangroves", "LULC_code": 4 }, "geometry": { "type": "Point", "coordinates": [ 177.9509109, -18.26216364 ] } },
{ "type": "Feature", "properties": { "fid": 9135, "ClassId": 2, "Class": "Forest", "LULC_code": 2 }, "geometry": { "type": "Point", "coordinates": [ 178.4661868, -17.70457981 ] } },
{ "type": "Feature", "properties": { "fid": 9178, "ClassId": 6, "Class": "Water", "LULC_code": 6 }, "geometry": { "type": "Point", "coordinates": [ 178.563743, -18.05627357 ] } },
{ "type": "Feature", "properties": { "fid": 9732, "ClassId": 2, "Class": "Forest", "LULC_code": 2 }, "geometry": { "type": "Point", "coordinates": [ 178.2503217, -17.75470902 ] } },
{ "type": "Feature", "properties": { "fid": 10575, "ClassId": 2, "Class": "Forest", "LULC_code": 2 }, "geometry": { "type": "Point", "coordinates": [ 178.301258, -17.77896207 ] } },
{ "type": "Feature", "properties": { "fid": 10635, "ClassId": 2, "Class": "Forest", "LULC_code": 2 }, "geometry": { "type": "Point", "coordinates": [ 177.8962066, -18.26917335 ] } },
{ "type": "Feature", "properties": { "fid": 10661, "ClassId": 3, "Class": "Grassland", "LULC_code": 3 }, "geometry": { "type": "Point", "coordinates": [ 178.0570955, -17.38981187 ] } },
{ "type": "Feature", "properties": { "fid": 11478, "ClassId": 4, "Class": "Mangroves", "LULC_code": 4 }, "geometry": { "type": "Point", "coordinates": [ 177.6552769, -17.45961017 ] } },
{ "type": "Feature", "properties": { "fid": 11538, "ClassId": 2, "Class": "Forest", "LULC_code": 2 }, "geometry": { "type": "Point", "coordinates": [ 177.857127100000014, -18.07405646 ] } },
{ "type": "Feature", "properties": { "fid": 11580, "ClassId": 2, "Class": "Forest", "LULC_code": 2 }, "geometry": { "type": "Point", "coordinates": [ 178.287243, -17.58384965 ] } },
{ "type": "Feature", "properties": { "fid": 12183, "ClassId": 2, "Class": "Forest", "LULC_code": 2 }, "geometry": { "type": "Point", "coordinates": [ 178.26514370000001, -18.07190272 ] } },
{ "type": "Feature", "properties": { "fid": 12435, "ClassId": 2, "Class": "Forest", "LULC_code": 2 }, "geometry": { "type": "Point", "coordinates": [ 177.804848600000014, -17.79378413 ] } },
{ "type": "Feature", "properties": { "fid": 12449, "ClassId": 2, "Class": "Forest", "LULC_code": 2 }, "geometry": { "type": "Point", "coordinates": [ 178.2524754, -18.08429902 ] } },
{ "type": "Feature", "properties": { "fid": 12464, "ClassId": 2, "Class": "Forest", "LULC_code": 2 }, "geometry": { "type": "Point", "coordinates": [ 178.5319451, -17.93580649 ] } },
{ "type": "Feature", "properties": { "fid": 13392, "ClassId": 6, "Class": "Water", "LULC_code": 6 }, "geometry": { "type": "Point", "coordinates": [ 178.5491929, -18.04522392 ] } },
{ "type": "Feature", "properties": { "fid": 13498, "ClassId": 4, "Class": "Mangroves", "LULC_code": 4 }, "geometry": { "type": "Point", "coordinates": [ 178.6068625, -17.77842252 ] } },
{ "type": "Feature", "properties": { "fid": 13515, "ClassId": 4, "Class": "Mangroves", "LULC_code": 4 }, "geometry": { "type": "Point", "coordinates": [ 178.5747926, -18.13307713 ] } },
{ "type": "Feature", "properties": { "fid": 13854, "ClassId": 3, "Class": "Grassland", "LULC_code": 3 }, "geometry": { "type": "Point", "coordinates": [ 177.574968500000011, -17.59921125 ] } },
{ "type": "Feature", "properties": { "fid": 14394, "ClassId": 4, "Class": "Mangroves", "LULC_code": 4 }, "geometry": { "type": "Point", "coordinates": [ 177.4819918, -17.5881616 ] } },
{ "type": "Feature", "properties": { "fid": 14441, "ClassId": 4, "Class": "Mangroves", "LULC_code": 4 }, "geometry": { "type": "Point", "coordinates": [ 177.925039199999986, -18.2686338 ] } },
{ "type": "Feature", "properties": { "fid": 14958, "ClassId": 1, "Class": "Cropland", "LULC_code": 1 }, "geometry": { "type": "Point", "coordinates": [ 178.49125140000001, -17.6310091 ] } },
{ "type": "Feature", "properties": { "fid": 14997, "ClassId": 2, "Class": "Forest", "LULC_code": 2 }, "geometry": { "type": "Point", "coordinates": [ 178.061942499999986, -18.21958369 ] } },
{ "type": "Feature", "properties": { "fid": 15006, "ClassId": 2, "Class": "Forest", "LULC_code": 2 }, "geometry": { "type": "Point", "coordinates": [ 178.454058, -17.77788297 ] } },
{ "type": "Feature", "properties": { "fid": 15043, "ClassId": 2, "Class": "Forest", "LULC_code": 2 }, "geometry": { "type": "Point", "coordinates": [ 177.448842899999988, -18.11205692 ] } },
{ "type": "Feature", "properties": { "fid": 15196, "ClassId": 2, "Class": "Forest", "LULC_code": 2 }, "geometry": { "type": "Point", "coordinates": [ 177.6021869, -18.12391367 ] } },
{ "type": "Feature", "properties": { "fid": 15207, "ClassId": 2, "Class": "Forest", "LULC_code": 2 }, "geometry": { "type": "Point", "coordinates": [ 177.9460638, -18.01261451 ] } },
{ "type": "Feature", "properties": { "fid": 15259, "ClassId": 2, "Class": "Forest", "LULC_code": 2 }, "geometry": { "type": "Point", "coordinates": [ 178.186182, -17.68194541 ] } },
{ "type": "Feature", "properties": { "fid": 15272, "ClassId": 2, "Class": "Forest", "LULC_code": 2 }, "geometry": { "type": "Point", "coordinates": [ 177.6900401, -17.74527357 ] } },
{ "type": "Feature", "properties": { "fid": 15416, "ClassId": 6, "Class": "Water", "LULC_code": 6 }, "geometry": { "type": "Point", "coordinates": [ 178.548920900000013, -18.04495191 ] } },
{ "type": "Feature", "properties": { "fid": 15647, "ClassId": 6, "Class": "Water", "LULC_code": 6 }, "geometry": { "type": "Point", "coordinates": [ 178.566708299999988, -18.06031351 ] } },
{ "type": "Feature", "properties": { "fid": 17280, "ClassId": 4, "Class": "Mangroves", "LULC_code": 4 }, "geometry": { "type": "Point", "coordinates": [ 178.562396299999989, -18.14116148 ] } },
{ "type": "Feature", "properties": { "fid": 17317, "ClassId": 4, "Class": "Mangroves", "LULC_code": 4 }, "geometry": { "type": "Point", "coordinates": [ 178.5133462, -18.11582932 ] } },
{ "type": "Feature", "properties": { "fid": 17387, "ClassId": 4, "Class": "Mangroves", "LULC_code": 4 }, "geometry": { "type": "Point", "coordinates": [ 178.5866494, -18.14385923 ] } },
{ "type": "Feature", "properties": { "fid": 17467, "ClassId": 2, "Class": "Forest", "LULC_code": 2 }, "geometry": { "type": "Point", "coordinates": [ 177.6261724, -17.68463871 ] } },
{ "type": "Feature", "properties": { "fid": 17735, "ClassId": 4, "Class": "Mangroves", "LULC_code": 4 }, "geometry": { "type": "Point", "coordinates": [ 177.4671698, -17.58735004 ] } },
{ "type": "Feature", "properties": { "fid": 17756, "ClassId": 1, "Class": "Cropland", "LULC_code": 1 }, "geometry": { "type": "Point", "coordinates": [ 177.8541662, -17.48844718 ] } },
{ "type": "Feature", "properties": { "fid": 18243, "ClassId": 2, "Class": "Forest", "LULC_code": 2 }, "geometry": { "type": "Point", "coordinates": [ 177.98217360000001, -17.6099889 ] } },
{ "type": "Feature", "properties": { "fid": 18301, "ClassId": 2, "Class": "Forest", "LULC_code": 2 }, "geometry": { "type": "Point", "coordinates": [ 177.9972677, -18.06139262 ] } },
{ "type": "Feature", "properties": { "fid": 18331, "ClassId": 3, "Class": "Grassland", "LULC_code": 3 }, "geometry": { "type": "Point", "coordinates": [ 177.9048305, -17.45179783 ] } },
{ "type": "Feature", "properties": { "fid": 18945, "ClassId": 1, "Class": "Cropland", "LULC_code": 1 }, "geometry": { "type": "Point", "coordinates": [ 177.727233500000011, -17.52563608 ] } },
{ "type": "Feature", "properties": { "fid": 18946, "ClassId": 1, "Class": "Cropland", "LULC_code": 1 }, "geometry": { "type": "Point", "coordinates": [ 177.867102100000011, -17.50057594 ] } },
{ "type": "Feature", "properties": { "fid": 18958, "ClassId": 1, "Class": "Cropland", "LULC_code": 1 }, "geometry": { "type": "Point", "coordinates": [ 178.2220242, -17.35235096 ] } },
{ "type": "Feature", "properties": { "fid": 18982, "ClassId": 1, "Class": "Cropland", "LULC_code": 1 }, "geometry": { "type": "Point", "coordinates": [ 177.8921622, -17.46392213 ] } },
{ "type": "Feature", "properties": { "fid": 19027, "ClassId": 2, "Class": "Forest", "LULC_code": 2 }, "geometry": { "type": "Point", "coordinates": [ 178.0603283, -17.92664304 ] } },
{ "type": "Feature", "properties": { "fid": 19066, "ClassId": 2, "Class": "Forest", "LULC_code": 2 }, "geometry": { "type": "Point", "coordinates": [ 177.7679272, -18.12337412 ] } },
{ "type": "Feature", "properties": { "fid": 19081, "ClassId": 2, "Class": "Forest", "LULC_code": 2 }, "geometry": { "type": "Point", "coordinates": [ 178.427111700000012, -17.5948993 ] } },
{ "type": "Feature", "properties": { "fid": 19151, "ClassId": 2, "Class": "Forest", "LULC_code": 2 }, "geometry": { "type": "Point", "coordinates": [ 178.3643186, -17.68086631 ] } },
{ "type": "Feature", "properties": { "fid": 19236, "ClassId": 2, "Class": "Forest", "LULC_code": 2 }, "geometry": { "type": "Point", "coordinates": [ 178.214479399999988, -18.09669532 ] } },
{ "type": "Feature", "properties": { "fid": 19255, "ClassId": 2, "Class": "Forest", "LULC_code": 2 }, "geometry": { "type": "Point", "coordinates": [ 178.4047404, -17.9732674 ] } },
{ "type": "Feature", "properties": { "fid": 19283, "ClassId": 2, "Class": "Forest", "LULC_code": 2 }, "geometry": { "type": "Point", "coordinates": [ 177.930969800000014, -17.57360709 ] } },
{ "type": "Feature", "properties": { "fid": 19300, "ClassId": 2, "Class": "Forest", "LULC_code": 2 }, "geometry": { "type": "Point", "coordinates": [ 177.880845, -17.73233771 ] } },
{ "type": "Feature", "properties": { "fid": 19319, "ClassId": 2, "Class": "Forest", "LULC_code": 2 }, "geometry": { "type": "Point", "coordinates": [ 178.061675, -18.18293433 ] } },
{ "type": "Feature", "properties": { "fid": 19340, "ClassId": 2, "Class": "Forest", "LULC_code": 2 }, "geometry": { "type": "Point", "coordinates": [ 178.147914, -17.6700842 ] } },
{ "type": "Feature", "properties": { "fid": 19377, "ClassId": 2, "Class": "Forest", "LULC_code": 2 }, "geometry": { "type": "Point", "coordinates": [ 178.2093559, -17.35235096 ] } },
{ "type": "Feature", "properties": { "fid": 19396, "ClassId": 3, "Class": "Grassland", "LULC_code": 3 }, "geometry": { "type": "Point", "coordinates": [ 177.791101200000014, -17.57414664 ] } },
{ "type": "Feature", "properties": { "fid": 19436, "ClassId": 3, "Class": "Grassland", "LULC_code": 3 }, "geometry": { "type": "Point", "coordinates": [ 177.8816521, -17.87894404 ] } },
{ "type": "Feature", "properties": { "fid": 19493, "ClassId": 3, "Class": "Grassland", "LULC_code": 3 }, "geometry": { "type": "Point", "coordinates": [ 177.85443380000001, -17.53722529 ] } },
{ "type": "Feature", "properties": { "fid": 21492, "ClassId": 4, "Class": "Mangroves", "LULC_code": 4 }, "geometry": { "type": "Point", "coordinates": [ 178.62195650000001, -17.940658 ] } },
{ "type": "Feature", "properties": { "fid": 21537, "ClassId": 4, "Class": "Mangroves", "LULC_code": 4 }, "geometry": { "type": "Point", "coordinates": [ 177.5426267, -18.16973094 ] } },
{ "type": "Feature", "properties": { "fid": 21618, "ClassId": 2, "Class": "Forest", "LULC_code": 2 }, "geometry": { "type": "Point", "coordinates": [ 178.481008800000012, -17.96060356 ] } },
{ "type": "Feature", "properties": { "fid": 21634, "ClassId": 2, "Class": "Forest", "LULC_code": 2 }, "geometry": { "type": "Point", "coordinates": [ 177.89486, -17.98862901 ] } },
{ "type": "Feature", "properties": { "fid": 21637, "ClassId": 2, "Class": "Forest", "LULC_code": 2 }, "geometry": { "type": "Point", "coordinates": [ 177.8940484, -17.81776963 ] } },
{ "type": "Feature", "properties": { "fid": 21902, "ClassId": 3, "Class": "Grassland", "LULC_code": 3 }, "geometry": { "type": "Point", "coordinates": [ 177.5493644, -17.61160755 ] } },
{ "type": "Feature", "properties": { "fid": 21990, "ClassId": 1, "Class": "Cropland", "LULC_code": 1 }, "geometry": { "type": "Point", "coordinates": [ 177.4736399, -17.80698752 ] } },
{ "type": "Feature", "properties": { "fid": 22017, "ClassId": 2, "Class": "Forest", "LULC_code": 2 }, "geometry": { "type": "Point", "coordinates": [ 178.1756719, -18.01153541 ] } },
{ "type": "Feature", "properties": { "fid": 22023, "ClassId": 2, "Class": "Forest", "LULC_code": 2 }, "geometry": { "type": "Point", "coordinates": [ 178.3263181, -17.69326261 ] } },
{ "type": "Feature", "properties": { "fid": 22036, "ClassId": 2, "Class": "Forest", "LULC_code": 2 }, "geometry": { "type": "Point", "coordinates": [ 178.2772725, -17.9864708 ] } },
{ "type": "Feature", "properties": { "fid": 22055, "ClassId": 2, "Class": "Forest", "LULC_code": 2 }, "geometry": { "type": "Point", "coordinates": [ 178.3764429, -17.6196919 ] } },
{ "type": "Feature", "properties": { "fid": 22091, "ClassId": 2, "Class": "Forest", "LULC_code": 2 }, "geometry": { "type": "Point", "coordinates": [ 178.2398116, -18.07217026 ] } },
{ "type": "Feature", "properties": { "fid": 22147, "ClassId": 2, "Class": "Forest", "LULC_code": 2 }, "geometry": { "type": "Point", "coordinates": [ 178.468340500000011, -17.9484748 ] } },
{ "type": "Feature", "properties": { "fid": 22189, "ClassId": 2, "Class": "Forest", "LULC_code": 2 }, "geometry": { "type": "Point", "coordinates": [ 177.6140436, -17.8921519 ] } },
{ "type": "Feature", "properties": { "fid": 22235, "ClassId": 2, "Class": "Forest", "LULC_code": 2 }, "geometry": { "type": "Point", "coordinates": [ 177.499507200000011, -17.9657226 ] } },
{ "type": "Feature", "properties": { "fid": 22250, "ClassId": 2, "Class": "Forest", "LULC_code": 2 }, "geometry": { "type": "Point", "coordinates": [ 178.4276468, -17.64367741 ] } },
{ "type": "Feature", "properties": { "fid": 22284, "ClassId": 2, "Class": "Forest", "LULC_code": 2 }, "geometry": { "type": "Point", "coordinates": [ 178.2637971, -17.86466154 ] } },
{ "type": "Feature", "properties": { "fid": 22303, "ClassId": 3, "Class": "Grassland", "LULC_code": 3 }, "geometry": { "type": "Point", "coordinates": [ 177.9075238, -17.9398509 ] } },
{ "type": "Feature", "properties": { "fid": 22304, "ClassId": 3, "Class": "Grassland", "LULC_code": 3 }, "geometry": { "type": "Point", "coordinates": [ 178.0953635, -17.41406492 ] } },
{ "type": "Feature", "properties": { "fid": 22307, "ClassId": 3, "Class": "Grassland", "LULC_code": 3 }, "geometry": { "type": "Point", "coordinates": [ 177.9813665, -17.50003638 ] } },
{ "type": "Feature", "properties": { "fid": 22349, "ClassId": 3, "Class": "Grassland", "LULC_code": 3 }, "geometry": { "type": "Point", "coordinates": [ 177.7533727, -17.72075297 ] } },
{ "type": "Feature", "properties": { "fid": 22392, "ClassId": 3, "Class": "Grassland", "LULC_code": 3 }, "geometry": { "type": "Point", "coordinates": [ 177.8940484, -17.84229469 ] } },
{ "type": "Feature", "properties": { "fid": 22397, "ClassId": 3, "Class": "Grassland", "LULC_code": 3 }, "geometry": { "type": "Point", "coordinates": [ 178.1104531, -17.80456623 ] } },
{ "type": "Feature", "properties": { "fid": 22530, "ClassId": 6, "Class": "Water", "LULC_code": 6 }, "geometry": { "type": "Point", "coordinates": [ 178.563475399999987, -18.05600156 ] } },
{ "type": "Feature", "properties": { "fid": 23856, "ClassId": 6, "Class": "Water", "LULC_code": 6 }, "geometry": { "type": "Point", "coordinates": [ 178.554312, -18.05007542 ] } },
{ "type": "Feature", "properties": { "fid": 23997, "ClassId": 4, "Class": "Mangroves", "LULC_code": 4 }, "geometry": { "type": "Point", "coordinates": [ 177.8363789, -18.24087589 ] } },
{ "type": "Feature", "properties": { "fid": 24028, "ClassId": 4, "Class": "Mangroves", "LULC_code": 4 }, "geometry": { "type": "Point", "coordinates": [ 178.5564657, -18.12607188 ] } },
{ "type": "Feature", "properties": { "fid": 24095, "ClassId": 1, "Class": "Cropland", "LULC_code": 1 }, "geometry": { "type": "Point", "coordinates": [ 178.5842236, -18.09400202 ] } },
{ "type": "Feature", "properties": { "fid": 24214, "ClassId": 2, "Class": "Forest", "LULC_code": 2 }, "geometry": { "type": "Point", "coordinates": [ 178.4047404, -17.96113865 ] } },
{ "type": "Feature", "properties": { "fid": 24257, "ClassId": 2, "Class": "Forest", "LULC_code": 2 }, "geometry": { "type": "Point", "coordinates": [ 178.0975172, -17.76791242 ] } },
{ "type": "Feature", "properties": { "fid": 24261, "ClassId": 2, "Class": "Forest", "LULC_code": 2 }, "geometry": { "type": "Point", "coordinates": [ 178.135785199999987, -17.76764488 ] } },
{ "type": "Feature", "properties": { "fid": 24425, "ClassId": 3, "Class": "Grassland", "LULC_code": 3 }, "geometry": { "type": "Point", "coordinates": [ 177.512175500000012, -17.9654506 ] } },
{ "type": "Feature", "properties": { "fid": 24455, "ClassId": 3, "Class": "Grassland", "LULC_code": 3 }, "geometry": { "type": "Point", "coordinates": [ 177.5501759, -17.84336933 ] } },
{ "type": "Feature", "properties": { "fid": 25516, "ClassId": 7, "Class": "Bare_Other", "LULC_code": 7 }, "geometry": { "type": "Point", "coordinates": [ 178.1554588, -17.31785535 ] } },
{ "type": "Feature", "properties": { "fid": 25570, "ClassId": 5, "Class": "Settlement", "LULC_code": 5 }, "geometry": { "type": "Point", "coordinates": [ 178.416062, -17.77815498 ] } },
{ "type": "Feature", "properties": { "fid": 25597, "ClassId": 1, "Class": "Cropland", "LULC_code": 1 }, "geometry": { "type": "Point", "coordinates": [ 177.4227036, -17.79486323 ] } },
{ "type": "Feature", "properties": { "fid": 25625, "ClassId": 1, "Class": "Cropland", "LULC_code": 1 }, "geometry": { "type": "Point", "coordinates": [ 177.727773, -17.63532105 ] } },
{ "type": "Feature", "properties": { "fid": 25635, "ClassId": 1, "Class": "Cropland", "LULC_code": 1 }, "geometry": { "type": "Point", "coordinates": [ 177.804037, -17.64744981 ] } },
{ "type": "Feature", "properties": { "fid": 25698, "ClassId": 2, "Class": "Forest", "LULC_code": 2 }, "geometry": { "type": "Point", "coordinates": [ 178.377522, -17.75389747 ] } },
{ "type": "Feature", "properties": { "fid": 25727, "ClassId": 2, "Class": "Forest", "LULC_code": 2 }, "geometry": { "type": "Point", "coordinates": [ 177.9342026, -18.17134513 ] } },
{ "type": "Feature", "properties": { "fid": 25795, "ClassId": 2, "Class": "Forest", "LULC_code": 2 }, "geometry": { "type": "Point", "coordinates": [ 178.213400299999989, -17.9379647 ] } },
{ "type": "Feature", "properties": { "fid": 25844, "ClassId": 2, "Class": "Forest", "LULC_code": 2 }, "geometry": { "type": "Point", "coordinates": [ 177.90833090000001, -18.11043827 ] } },
{ "type": "Feature", "properties": { "fid": 25943, "ClassId": 2, "Class": "Forest", "LULC_code": 2 }, "geometry": { "type": "Point", "coordinates": [ 177.4612392, -17.90481574 ] } },
{ "type": "Feature", "properties": { "fid": 25962, "ClassId": 2, "Class": "Forest", "LULC_code": 2 }, "geometry": { "type": "Point", "coordinates": [ 178.0110106, -18.20772694 ] } },
{ "type": "Feature", "properties": { "fid": 25969, "ClassId": 2, "Class": "Forest", "LULC_code": 2 }, "geometry": { "type": "Point", "coordinates": [ 178.5332918, -18.08214527 ] } },
{ "type": "Feature", "properties": { "fid": 26141, "ClassId": 2, "Class": "Forest", "LULC_code": 2 }, "geometry": { "type": "Point", "coordinates": [ 178.2271433, -18.09642777 ] } },
{ "type": "Feature", "properties": { "fid": 26230, "ClassId": 3, "Class": "Grassland", "LULC_code": 3 }, "geometry": { "type": "Point", "coordinates": [ 177.6641684, -17.63559306 ] } },
{ "type": "Feature", "properties": { "fid": 26233, "ClassId": 3, "Class": "Grassland", "LULC_code": 3 }, "geometry": { "type": "Point", "coordinates": [ 177.359371, -18.00264396 ] } },
{ "type": "Feature", "properties": { "fid": 26267, "ClassId": 3, "Class": "Grassland", "LULC_code": 3 }, "geometry": { "type": "Point", "coordinates": [ 177.4873829, -18.13658198 ] } },
{ "type": "Feature", "properties": { "fid": 26312, "ClassId": 3, "Class": "Grassland", "LULC_code": 3 }, "geometry": { "type": "Point", "coordinates": [ 177.8034975, -17.53749283 ] } },
{ "type": "Feature", "properties": { "fid": 26342, "ClassId": 3, "Class": "Grassland", "LULC_code": 3 }, "geometry": { "type": "Point", "coordinates": [ 177.9064447, -17.73233771 ] } },
{ "type": "Feature", "properties": { "fid": 26359, "ClassId": 3, "Class": "Grassland", "LULC_code": 3 }, "geometry": { "type": "Point", "coordinates": [ 178.275114300000013, -17.68140586 ] } },
{ "type": "Feature", "properties": { "fid": 26367, "ClassId": 3, "Class": "Grassland", "LULC_code": 3 }, "geometry": { "type": "Point", "coordinates": [ 177.727773, -17.68437116 ] } },
{ "type": "Feature", "properties": { "fid": 26369, "ClassId": 3, "Class": "Grassland", "LULC_code": 3 }, "geometry": { "type": "Point", "coordinates": [ 178.0196345, -17.50003638 ] } },
{ "type": "Feature", "properties": { "fid": 26432, "ClassId": 3, "Class": "Grassland", "LULC_code": 3 }, "geometry": { "type": "Point", "coordinates": [ 178.2214847, -17.2790478 ] } },
{ "type": "Feature", "properties": { "fid": 29319, "ClassId": 4, "Class": "Mangroves", "LULC_code": 4 }, "geometry": { "type": "Point", "coordinates": [ 178.008584899999988, -18.25947034 ] } },
{ "type": "Feature", "properties": { "fid": 29490, "ClassId": 7, "Class": "Bare_Other", "LULC_code": 7 }, "geometry": { "type": "Point", "coordinates": [ 177.3911733, -17.66173231 ] } },
{ "type": "Feature", "properties": { "fid": 29495, "ClassId": 7, "Class": "Bare_Other", "LULC_code": 7 }, "geometry": { "type": "Point", "coordinates": [ 177.4191988, -17.77033817 ] } },
{ "type": "Feature", "properties": { "fid": 29635, "ClassId": 2, "Class": "Forest", "LULC_code": 2 }, "geometry": { "type": "Point", "coordinates": [ 178.1225818, -17.69460926 ] } },
{ "type": "Feature", "properties": { "fid": 29658, "ClassId": 2, "Class": "Forest", "LULC_code": 2 }, "geometry": { "type": "Point", "coordinates": [ 178.41740870000001, -17.96113865 ] } },
{ "type": "Feature", "properties": { "fid": 29682, "ClassId": 2, "Class": "Forest", "LULC_code": 2 }, "geometry": { "type": "Point", "coordinates": [ 177.944177599999989, -17.67116331 ] } },
{ "type": "Feature", "properties": { "fid": 29689, "ClassId": 2, "Class": "Forest", "LULC_code": 2 }, "geometry": { "type": "Point", "coordinates": [ 177.8315274, -18.04980341 ] } },
{ "type": "Feature", "properties": { "fid": 29715, "ClassId": 2, "Class": "Forest", "LULC_code": 2 }, "geometry": { "type": "Point", "coordinates": [ 177.9835203, -17.85387943 ] } },
{ "type": "Feature", "properties": { "fid": 29722, "ClassId": 2, "Class": "Forest", "LULC_code": 2 }, "geometry": { "type": "Point", "coordinates": [ 178.0080453, -17.69514881 ] } },
{ "type": "Feature", "properties": { "fid": 29826, "ClassId": 2, "Class": "Forest", "LULC_code": 2 }, "geometry": { "type": "Point", "coordinates": [ 178.1748648, -17.91397919 ] } },
{ "type": "Feature", "properties": { "fid": 29850, "ClassId": 2, "Class": "Forest", "LULC_code": 2 }, "geometry": { "type": "Point", "coordinates": [ 177.8813846, -17.81776963 ] } },
{ "type": "Feature", "properties": { "fid": 29925, "ClassId": 2, "Class": "Forest", "LULC_code": 2 }, "geometry": { "type": "Point", "coordinates": [ 177.997802799999988, -18.15894883 ] } },
{ "type": "Feature", "properties": { "fid": 29980, "ClassId": 3, "Class": "Grassland", "LULC_code": 3 }, "geometry": { "type": "Point", "coordinates": [ 177.792180300000012, -17.83043348 ] } },
{ "type": "Feature", "properties": { "fid": 29998, "ClassId": 3, "Class": "Grassland", "LULC_code": 3 }, "geometry": { "type": "Point", "coordinates": [ 177.7522936, -17.44020863 ] } },
{ "type": "Feature", "properties": { "fid": 30006, "ClassId": 3, "Class": "Grassland", "LULC_code": 3 }, "geometry": { "type": "Point", "coordinates": [ 177.5253789, -18.03875376 ] } },
{ "type": "Feature", "properties": { "fid": 30047, "ClassId": 3, "Class": "Grassland", "LULC_code": 3 }, "geometry": { "type": "Point", "coordinates": [ 177.512443, -18.02662946 ] } },
{ "type": "Feature", "properties": { "fid": 30206, "ClassId": 6, "Class": "Water", "LULC_code": 6 }, "geometry": { "type": "Point", "coordinates": [ 178.568326899999988, -18.06813032 ] } },
{ "type": "Feature", "properties": { "fid": 31563, "ClassId": 4, "Class": "Mangroves", "LULC_code": 4 }, "geometry": { "type": "Point", "coordinates": [ 178.619798300000014, -18.06866987 ] } },
{ "type": "Feature", "properties": { "fid": 31583, "ClassId": 4, "Class": "Mangroves", "LULC_code": 4 }, "geometry": { "type": "Point", "coordinates": [ 178.3341349, -18.14735963 ] } },
{ "type": "Feature", "properties": { "fid": 31654, "ClassId": 7, "Class": "Bare_Other", "LULC_code": 7 }, "geometry": { "type": "Point", "coordinates": [ 177.7633433, -17.39843577 ] } },
{ "type": "Feature", "properties": { "fid": 31760, "ClassId": 2, "Class": "Forest", "LULC_code": 2 }, "geometry": { "type": "Point", "coordinates": [ 177.790294100000011, -17.41568357 ] } },
{ "type": "Feature", "properties": { "fid": 31793, "ClassId": 2, "Class": "Forest", "LULC_code": 2 }, "geometry": { "type": "Point", "coordinates": [ 177.77924440000001, -17.80618043 ] } },
{ "type": "Feature", "properties": { "fid": 32119, "ClassId": 2, "Class": "Forest", "LULC_code": 2 }, "geometry": { "type": "Point", "coordinates": [ 178.5295194, -17.66739091 ] } },
{ "type": "Feature", "properties": { "fid": 32151, "ClassId": 2, "Class": "Forest", "LULC_code": 2 }, "geometry": { "type": "Point", "coordinates": [ 178.0862, -18.01207496 ] } },
{ "type": "Feature", "properties": { "fid": 32165, "ClassId": 2, "Class": "Forest", "LULC_code": 2 }, "geometry": { "type": "Point", "coordinates": [ 177.7789769, -17.74500602 ] } },
{ "type": "Feature", "properties": { "fid": 32166, "ClassId": 2, "Class": "Forest", "LULC_code": 2 }, "geometry": { "type": "Point", "coordinates": [ 177.8175124, -17.81803718 ] } },
{ "type": "Feature", "properties": { "fid": 32180, "ClassId": 3, "Class": "Grassland", "LULC_code": 3 }, "geometry": { "type": "Point", "coordinates": [ 177.5881719, -17.80671998 ] } },
{ "type": "Feature", "properties": { "fid": 32558, "ClassId": 7, "Class": "Bare_Other", "LULC_code": 7 }, "geometry": { "type": "Point", "coordinates": [ 177.62832610000001, -18.19209779 ] } },
{ "type": "Feature", "properties": { "fid": 32659, "ClassId": 2, "Class": "Forest", "LULC_code": 2 }, "geometry": { "type": "Point", "coordinates": [ 178.1592312, -17.46257548 ] } },
{ "type": "Feature", "properties": { "fid": 32660, "ClassId": 2, "Class": "Forest", "LULC_code": 2 }, "geometry": { "type": "Point", "coordinates": [ 177.7544518, -17.95251475 ] } },
{ "type": "Feature", "properties": { "fid": 32759, "ClassId": 1, "Class": "Cropland", "LULC_code": 1 }, "geometry": { "type": "Point", "coordinates": [ 177.727233500000011, -17.51351179 ] } },
{ "type": "Feature", "properties": { "fid": 33178, "ClassId": 2, "Class": "Forest", "LULC_code": 2 }, "geometry": { "type": "Point", "coordinates": [ 177.6005682, -17.64798936 ] } },
{ "type": "Feature", "properties": { "fid": 33759, "ClassId": 2, "Class": "Forest", "LULC_code": 2 }, "geometry": { "type": "Point", "coordinates": [ 178.26217840000001, -17.64502406 ] } },
{ "type": "Feature", "properties": { "fid": 33924, "ClassId": 2, "Class": "Forest", "LULC_code": 2 }, "geometry": { "type": "Point", "coordinates": [ 177.9059052, -17.6223852 ] } },
{ "type": "Feature", "properties": { "fid": 33927, "ClassId": 2, "Class": "Forest", "LULC_code": 2 }, "geometry": { "type": "Point", "coordinates": [ 178.4419337, -17.85118613 ] } },
{ "type": "Feature", "properties": { "fid": 33948, "ClassId": 2, "Class": "Forest", "LULC_code": 2 }, "geometry": { "type": "Point", "coordinates": [ 178.5303265, -17.74069407 ] } },
{ "type": "Feature", "properties": { "fid": 33969, "ClassId": 3, "Class": "Grassland", "LULC_code": 3 }, "geometry": { "type": "Point", "coordinates": [ 177.930969800000014, -17.54908204 ] } },
{ "type": "Feature", "properties": { "fid": 33975, "ClassId": 3, "Class": "Grassland", "LULC_code": 3 }, "geometry": { "type": "Point", "coordinates": [ 178.5971595, -18.09373002 ] } },
{ "type": "Feature", "properties": { "fid": 34218, "ClassId": 7, "Class": "Bare_Other", "LULC_code": 7 }, "geometry": { "type": "Point", "coordinates": [ 178.339254, -17.49060093 ] } },
{ "type": "Feature", "properties": { "fid": 34356, "ClassId": 1, "Class": "Cropland", "LULC_code": 1 }, "geometry": { "type": "Point", "coordinates": [ 178.39126490000001, -17.87597874 ] } },
{ "type": "Feature", "properties": { "fid": 34421, "ClassId": 1, "Class": "Cropland", "LULC_code": 1 }, "geometry": { "type": "Point", "coordinates": [ 177.7019013, -17.57441419 ] } },
{ "type": "Feature", "properties": { "fid": 34734, "ClassId": 1, "Class": "Cropland", "LULC_code": 1 }, "geometry": { "type": "Point", "coordinates": [ 178.5963524, -18.02069886 ] } },
{ "type": "Feature", "properties": { "fid": 34741, "ClassId": 2, "Class": "Forest", "LULC_code": 2 }, "geometry": { "type": "Point", "coordinates": [ 178.2514008, -17.93769269 ] } },
{ "type": "Feature", "properties": { "fid": 34897, "ClassId": 1, "Class": "Cropland", "LULC_code": 1 }, "geometry": { "type": "Point", "coordinates": [ 177.5507155, -18.02635746 ] } },
{ "type": "Feature", "properties": { "fid": 34948, "ClassId": 2, "Class": "Forest", "LULC_code": 2 }, "geometry": { "type": "Point", "coordinates": [ 178.20208310000001, -18.15760218 ] } },
{ "type": "Feature", "properties": { "fid": 35398, "ClassId": 2, "Class": "Forest", "LULC_code": 2 }, "geometry": { "type": "Point", "coordinates": [ 177.5628398, -17.84336933 ] } },
{ "type": "Feature", "properties": { "fid": 35444, "ClassId": 7, "Class": "Bare_Other", "LULC_code": 7 }, "geometry": { "type": "Point", "coordinates": [ 178.0945519, -18.25084644 ] } },
{ "type": "Feature", "properties": { "fid": 35481, "ClassId": 3, "Class": "Grassland", "LULC_code": 3 }, "geometry": { "type": "Point", "coordinates": [ 177.4612392, -17.98997565 ] } },
{ "type": "Feature", "properties": { "fid": 35628, "ClassId": 7, "Class": "Bare_Other", "LULC_code": 7 }, "geometry": { "type": "Point", "coordinates": [ 177.4817243, -18.17053803 ] } },
{ "type": "Feature", "properties": { "fid": 35693, "ClassId": 2, "Class": "Forest", "LULC_code": 2 }, "geometry": { "type": "Point", "coordinates": [ 177.4871109, -18.03875376 ] } },
{ "type": "Feature", "properties": { "fid": 35720, "ClassId": 2, "Class": "Forest", "LULC_code": 2 }, "geometry": { "type": "Point", "coordinates": [ 178.325511, -17.5957064 ] } },
{ "type": "Feature", "properties": { "fid": 35759, "ClassId": 2, "Class": "Forest", "LULC_code": 2 }, "geometry": { "type": "Point", "coordinates": [ 178.1107251, -17.82881928 ] } },
{ "type": "Feature", "properties": { "fid": 35828, "ClassId": 1, "Class": "Cropland", "LULC_code": 1 }, "geometry": { "type": "Point", "coordinates": [ 177.918033900000012, -17.51270023 ] } },
{ "type": "Feature", "properties": { "fid": 35847, "ClassId": 2, "Class": "Forest", "LULC_code": 2 }, "geometry": { "type": "Point", "coordinates": [ 177.524304199999989, -17.69703501 ] } },
{ "type": "Feature", "properties": { "fid": 35990, "ClassId": 7, "Class": "Bare_Other", "LULC_code": 7 }, "geometry": { "type": "Point", "coordinates": [ 178.1047945, -18.37831876 ] } },
{ "type": "Feature", "properties": { "fid": 36115, "ClassId": 2, "Class": "Forest", "LULC_code": 2 }, "geometry": { "type": "Point", "coordinates": [ 178.060056300000014, -17.87786494 ] } },
{ "type": "Feature", "properties": { "fid": 36156, "ClassId": 3, "Class": "Grassland", "LULC_code": 3 }, "geometry": { "type": "Point", "coordinates": [ 177.448575299999987, -17.99024766 ] } },
{ "type": "Feature", "properties": { "fid": 36157, "ClassId": 3, "Class": "Grassland", "LULC_code": 3 }, "geometry": { "type": "Point", "coordinates": [ 178.04523420000001, -17.51189313 ] } },
{ "type": "Feature", "properties": { "fid": 36207, "ClassId": 2, "Class": "Forest", "LULC_code": 2 }, "geometry": { "type": "Point", "coordinates": [ 178.5181977, -17.82612153 ] } },
{ "type": "Feature", "properties": { "fid": 36219, "ClassId": 2, "Class": "Forest", "LULC_code": 2 }, "geometry": { "type": "Point", "coordinates": [ 178.3023326, -17.9007758 ] } },
{ "type": "Feature", "properties": { "fid": 36393, "ClassId": 2, "Class": "Forest", "LULC_code": 2 }, "geometry": { "type": "Point", "coordinates": [ 178.571559799999989, -18.09400202 ] } },
{ "type": "Feature", "properties": { "fid": 36745, "ClassId": 2, "Class": "Forest", "LULC_code": 2 }, "geometry": { "type": "Point", "coordinates": [ 178.1856424, -17.5965135 ] } },
{ "type": "Feature", "properties": { "fid": 36749, "ClassId": 2, "Class": "Forest", "LULC_code": 2 }, "geometry": { "type": "Point", "coordinates": [ 178.009392, -17.9635644 ] } },
{ "type": "Feature", "properties": { "fid": 37182, "ClassId": 3, "Class": "Grassland", "LULC_code": 3 }, "geometry": { "type": "Point", "coordinates": [ 177.372039300000012, -17.99024766 ] } },
{ "type": "Feature", "properties": { "fid": 37465, "ClassId": 7, "Class": "Bare_Other", "LULC_code": 7 }, "geometry": { "type": "Point", "coordinates": [ 178.216905200000014, -17.2820131 ] } },
{ "type": "Feature", "properties": { "fid": 37472, "ClassId": 5, "Class": "Settlement", "LULC_code": 5 }, "geometry": { "type": "Point", "coordinates": [ 177.3973715, -17.84390888 ] } },
{ "type": "Feature", "properties": { "fid": 37483, "ClassId": 1, "Class": "Cropland", "LULC_code": 1 }, "geometry": { "type": "Point", "coordinates": [ 177.868988300000012, -17.89107279 ] } },
{ "type": "Feature", "properties": { "fid": 37493, "ClassId": 2, "Class": "Forest", "LULC_code": 2 }, "geometry": { "type": "Point", "coordinates": [ 178.1888753, -18.09669532 ] } },
{ "type": "Feature", "properties": { "fid": 37502, "ClassId": 2, "Class": "Forest", "LULC_code": 2 }, "geometry": { "type": "Point", "coordinates": [ 177.4987001, -17.6606532 ] } },
{ "type": "Feature", "properties": { "fid": 37569, "ClassId": 2, "Class": "Forest", "LULC_code": 2 }, "geometry": { "type": "Point", "coordinates": [ 178.2387325, -17.950089 ] } },
{ "type": "Feature", "properties": { "fid": 37572, "ClassId": 2, "Class": "Forest", "LULC_code": 2 }, "geometry": { "type": "Point", "coordinates": [ 178.215019, -18.18212724 ] } },
{ "type": "Feature", "properties": { "fid": 37641, "ClassId": 3, "Class": "Grassland", "LULC_code": 3 }, "geometry": { "type": "Point", "coordinates": [ 177.7671157, -17.91586539 ] } },
{ "type": "Feature", "properties": { "fid": 38165, "ClassId": 4, "Class": "Mangroves", "LULC_code": 4 }, "geometry": { "type": "Point", "coordinates": [ 177.8291016, -18.24707404 ] } },
{ "type": "Feature", "properties": { "fid": 38207, "ClassId": 7, "Class": "Bare_Other", "LULC_code": 7 }, "geometry": { "type": "Point", "coordinates": [ 177.3582964, -17.76440757 ] } },
{ "type": "Feature", "properties": { "fid": 38388, "ClassId": 2, "Class": "Forest", "LULC_code": 2 }, "geometry": { "type": "Point", "coordinates": [ 177.7423231, -18.08672477 ] } },
{ "type": "Feature", "properties": { "fid": 38430, "ClassId": 3, "Class": "Grassland", "LULC_code": 3 }, "geometry": { "type": "Point", "coordinates": [ 177.575775599999986, -17.84336933 ] } },
{ "type": "Feature", "properties": { "fid": 38528, "ClassId": 3, "Class": "Grassland", "LULC_code": 3 }, "geometry": { "type": "Point", "coordinates": [ 178.1107251, -17.85334434 ] } },
{ "type": "Feature", "properties": { "fid": 38699, "ClassId": 2, "Class": "Forest", "LULC_code": 2 }, "geometry": { "type": "Point", "coordinates": [ 177.8821917, -18.02527836 ] } },
{ "type": "Feature", "properties": { "fid": 38742, "ClassId": 3, "Class": "Grassland", "LULC_code": 3 }, "geometry": { "type": "Point", "coordinates": [ 178.1851029, -17.51108604 ] } },
{ "type": "Feature", "properties": { "fid": 39032, "ClassId": 7, "Class": "Bare_Other", "LULC_code": 7 }, "geometry": { "type": "Point", "coordinates": [ 178.25732690000001, -17.40490146 ] } },
{ "type": "Feature", "properties": { "fid": 39047, "ClassId": 7, "Class": "Bare_Other", "LULC_code": 7 }, "geometry": { "type": "Point", "coordinates": [ 178.0500858, -18.261089 ] } },
{ "type": "Feature", "properties": { "fid": 39190, "ClassId": 1, "Class": "Cropland", "LULC_code": 1 }, "geometry": { "type": "Point", "coordinates": [ 177.727233500000011, -17.50111103 ] } },
{ "type": "Feature", "properties": { "fid": 39386, "ClassId": 2, "Class": "Forest", "LULC_code": 2 }, "geometry": { "type": "Point", "coordinates": [ 177.996188600000011, -17.85387943 ] } },
{ "type": "Feature", "properties": { "fid": 39391, "ClassId": 2, "Class": "Forest", "LULC_code": 2 }, "geometry": { "type": "Point", "coordinates": [ 177.804848600000014, -17.84256223 ] } },
{ "type": "Feature", "properties": { "fid": 39567, "ClassId": 2, "Class": "Forest", "LULC_code": 2 }, "geometry": { "type": "Point", "coordinates": [ 178.429805, -17.912093 ] } },
{ "type": "Feature", "properties": { "fid": 39574, "ClassId": 3, "Class": "Grassland", "LULC_code": 3 }, "geometry": { "type": "Point", "coordinates": [ 178.273767600000014, -17.46176838 ] } },
{ "type": "Feature", "properties": { "fid": 39820, "ClassId": 2, "Class": "Forest", "LULC_code": 2 }, "geometry": { "type": "Point", "coordinates": [ 178.1727066, -17.56013169 ] } },
{ "type": "Feature", "properties": { "fid": 39838, "ClassId": 7, "Class": "Bare_Other", "LULC_code": 7 }, "geometry": { "type": "Point", "coordinates": [ 178.139557599999989, -18.26324274 ] } },
{ "type": "Feature", "properties": { "fid": 39857, "ClassId": 2, "Class": "Forest", "LULC_code": 2 }, "geometry": { "type": "Point", "coordinates": [ 178.2880501, -17.70565891 ] } },
{ "type": "Feature", "properties": { "fid": 39877, "ClassId": 3, "Class": "Grassland", "LULC_code": 3 }, "geometry": { "type": "Point", "coordinates": [ 178.0110106, -18.23198445 ] } },
{ "type": "Feature", "properties": { "fid": 39890, "ClassId": 3, "Class": "Grassland", "LULC_code": 3 }, "geometry": { "type": "Point", "coordinates": [ 177.6903121, -17.83070548 ] } },
{ "type": "Feature", "properties": { "fid": 39892, "ClassId": 3, "Class": "Grassland", "LULC_code": 3 }, "geometry": { "type": "Point", "coordinates": [ 177.666059, -18.19694929 ] } },
{ "type": "Feature", "properties": { "fid": 40125, "ClassId": 2, "Class": "Forest", "LULC_code": 2 }, "geometry": { "type": "Point", "coordinates": [ 177.931509299999988, -17.69568836 ] } },
{ "type": "Feature", "properties": { "fid": 40432, "ClassId": 2, "Class": "Forest", "LULC_code": 2 }, "geometry": { "type": "Point", "coordinates": [ 177.5113684, -17.6482569 ] } },
{ "type": "Feature", "properties": { "fid": 40472, "ClassId": 2, "Class": "Forest", "LULC_code": 2 }, "geometry": { "type": "Point", "coordinates": [ 178.162736, -18.02366416 ] } },
{ "type": "Feature", "properties": { "fid": 40490, "ClassId": 2, "Class": "Forest", "LULC_code": 2 }, "geometry": { "type": "Point", "coordinates": [ 177.4739075, -17.86816639 ] } },
{ "type": "Feature", "properties": { "fid": 40504, "ClassId": 2, "Class": "Forest", "LULC_code": 2 }, "geometry": { "type": "Point", "coordinates": [ 178.1635431, -18.12122038 ] } },
{ "type": "Feature", "properties": { "fid": 40533, "ClassId": 3, "Class": "Grassland", "LULC_code": 3 }, "geometry": { "type": "Point", "coordinates": [ 178.0444272, -17.39007941 ] } },
{ "type": "Feature", "properties": { "fid": 40555, "ClassId": 3, "Class": "Grassland", "LULC_code": 3 }, "geometry": { "type": "Point", "coordinates": [ 178.212593199999986, -17.81615098 ] } },
{ "type": "Feature", "properties": { "fid": 40960, "ClassId": 7, "Class": "Bare_Other", "LULC_code": 7 }, "geometry": { "type": "Point", "coordinates": [ 178.1072202, -18.42035917 ] } },
{ "type": "Feature", "properties": { "fid": 40969, "ClassId": 7, "Class": "Bare_Other", "LULC_code": 7 }, "geometry": { "type": "Point", "coordinates": [ 178.7421472, -17.77815498 ] } },
{ "type": "Feature", "properties": { "fid": 41042, "ClassId": 1, "Class": "Cropland", "LULC_code": 1 }, "geometry": { "type": "Point", "coordinates": [ 177.2698991, -17.89295899 ] } },
{ "type": "Feature", "properties": { "fid": 41114, "ClassId": 2, "Class": "Forest", "LULC_code": 2 }, "geometry": { "type": "Point", "coordinates": [ 178.339526, -17.77869453 ] } },
{ "type": "Feature", "properties": { "fid": 41141, "ClassId": 2, "Class": "Forest", "LULC_code": 2 }, "geometry": { "type": "Point", "coordinates": [ 178.4306121, -18.03417426 ] } },
{ "type": "Feature", "properties": { "fid": 41201, "ClassId": 2, "Class": "Forest", "LULC_code": 2 }, "geometry": { "type": "Point", "coordinates": [ 178.137131900000014, -17.9751536 ] } },
{ "type": "Feature", "properties": { "fid": 41206, "ClassId": 2, "Class": "Forest", "LULC_code": 2 }, "geometry": { "type": "Point", "coordinates": [ 178.13740390000001, -18.02393171 ] } },
{ "type": "Feature", "properties": { "fid": 41242, "ClassId": 2, "Class": "Forest", "LULC_code": 2 }, "geometry": { "type": "Point", "coordinates": [ 178.085660499999989, -17.90212245 ] } },
{ "type": "Feature", "properties": { "fid": 41293, "ClassId": 3, "Class": "Grassland", "LULC_code": 3 }, "geometry": { "type": "Point", "coordinates": [ 177.741244, -17.83070548 ] } },
{ "type": "Feature", "properties": { "fid": 41338, "ClassId": 3, "Class": "Grassland", "LULC_code": 3 }, "geometry": { "type": "Point", "coordinates": [ 178.286971, -17.53507154 ] } },
{ "type": "Feature", "properties": { "fid": 41345, "ClassId": 3, "Class": "Grassland", "LULC_code": 3 }, "geometry": { "type": "Point", "coordinates": [ 178.3524619, -17.79081882 ] } },
{ "type": "Feature", "properties": { "fid": 42229, "ClassId": 7, "Class": "Bare_Other", "LULC_code": 7 }, "geometry": { "type": "Point", "coordinates": [ 178.3589275, -17.49114048 ] } },
{ "type": "Feature", "properties": { "fid": 42566, "ClassId": 7, "Class": "Bare_Other", "LULC_code": 7 }, "geometry": { "type": "Point", "coordinates": [ 178.758855399999987, -17.78866508 ] } },
{ "type": "Feature", "properties": { "fid": 42607, "ClassId": 7, "Class": "Bare_Other", "LULC_code": 7 }, "geometry": { "type": "Point", "coordinates": [ 177.2550771, -17.89592429 ] } },
{ "type": "Feature", "properties": { "fid": 42612, "ClassId": 7, "Class": "Bare_Other", "LULC_code": 7 }, "geometry": { "type": "Point", "coordinates": [ 178.147106900000011, -18.36780866 ] } },
{ "type": "Feature", "properties": { "fid": 43075, "ClassId": 3, "Class": "Grassland", "LULC_code": 3 }, "geometry": { "type": "Point", "coordinates": [ 177.867102100000011, -17.48844718 ] } },
{ "type": "Feature", "properties": { "fid": 43381, "ClassId": 2, "Class": "Forest", "LULC_code": 2 }, "geometry": { "type": "Point", "coordinates": [ 177.9061772, -17.70781712 ] } },
{ "type": "Feature", "properties": { "fid": 43609, "ClassId": 5, "Class": "Settlement", "LULC_code": 5 }, "geometry": { "type": "Point", "coordinates": [ 178.5200839, -18.03336271 ] } },
{ "type": "Feature", "properties": { "fid": 43645, "ClassId": 2, "Class": "Forest", "LULC_code": 2 }, "geometry": { "type": "Point", "coordinates": [ 177.5504435, -17.91667249 ] } },
{ "type": "Feature", "properties": { "fid": 43653, "ClassId": 2, "Class": "Forest", "LULC_code": 2 }, "geometry": { "type": "Point", "coordinates": [ 178.214747, -18.16973094 ] } },
{ "type": "Feature", "properties": { "fid": 43671, "ClassId": 2, "Class": "Forest", "LULC_code": 2 }, "geometry": { "type": "Point", "coordinates": [ 178.199385400000011, -17.76737287 ] } },
{ "type": "Feature", "properties": { "fid": 43687, "ClassId": 2, "Class": "Forest", "LULC_code": 2 }, "geometry": { "type": "Point", "coordinates": [ 178.1635431, -18.14574543 ] } },
{ "type": "Feature", "properties": { "fid": 43725, "ClassId": 3, "Class": "Grassland", "LULC_code": 3 }, "geometry": { "type": "Point", "coordinates": [ 177.9069843, -17.86654774 ] } },
{ "type": "Feature", "properties": { "fid": 43759, "ClassId": 3, "Class": "Grassland", "LULC_code": 3 }, "geometry": { "type": "Point", "coordinates": [ 177.2955033, -17.88056269 ] } },
{ "type": "Feature", "properties": { "fid": 43764, "ClassId": 3, "Class": "Grassland", "LULC_code": 3 }, "geometry": { "type": "Point", "coordinates": [ 178.5963524, -18.00857011 ] } },
{ "type": "Feature", "properties": { "fid": 44358, "ClassId": 7, "Class": "Bare_Other", "LULC_code": 7 }, "geometry": { "type": "Point", "coordinates": [ 177.4108469, -18.13550288 ] } },
{ "type": "Feature", "properties": { "fid": 44404, "ClassId": 7, "Class": "Bare_Other", "LULC_code": 7 }, "geometry": { "type": "Point", "coordinates": [ 178.066254500000014, -17.34561326 ] } },
{ "type": "Feature", "properties": { "fid": 44880, "ClassId": 6, "Class": "Water", "LULC_code": 6 }, "geometry": { "type": "Point", "coordinates": [ 177.6630937, -17.74015452 ] } },
{ "type": "Feature", "properties": { "fid": 45097, "ClassId": 6, "Class": "Water", "LULC_code": 6 }, "geometry": { "type": "Point", "coordinates": [ 178.0336495, -17.74392692 ] } },
{ "type": "Feature", "properties": { "fid": 45640, "ClassId": 6, "Class": "Water", "LULC_code": 6 }, "geometry": { "type": "Point", "coordinates": [ 177.660668, -17.73718922 ] } },
{ "type": "Feature", "properties": { "fid": 46457, "ClassId": 1, "Class": "Cropland", "LULC_code": 1 }, "geometry": { "type": "Point", "coordinates": [ 178.568862, -17.80132892 ] } },
{ "type": "Feature", "properties": { "fid": 46886, "ClassId": 6, "Class": "Water", "LULC_code": 6 }, "geometry": { "type": "Point", "coordinates": [ 178.5456881, -18.04252616 ] } }
]
}
