{
    "type": "FeatureCollection",
    "features": [
        {
            "type": "Feature",
            "properties": {},
            "geometry": {
                "type": "Polygon",
                "coordinates": [
                    [
                        [
                            177.467194,
                            -18.164031
                        ],
                        [
                            178.087004,
                            -18.164031
                        ],
                        [
                            178.087004,
                            -17.81879
                        ],
                        [
                            177.467194,
                            -17.81879
                        ],
                        [
                            177.467194,
                            -18.164031
                        ]
                    ]
                ]
            },
            "bbox": [
                177.467194,
                -18.164031,
                178.087004,
                -17.81879
            ]
        }
    ]
}